GLOBALSTAR M024 [-]     
1 25883U 99043A   24086.88541983  .00000004  00000+0  24273-2 0  9990
2 25883  52.0036 309.8844 0002340  88.1274   5.0049 11.10159862 65181
GLOBALSTAR M027 [-]     
1 25884U 99043B   24086.91131209 -.00000092  00000+0 -10773-2 0  9990
2 25884  52.0256  15.1329 0021489 350.5154   9.5231 11.04367332 91827
GLOBALSTAR M054 [-]     
1 25885U 99043C   24086.62563519 -.00000123  00000+0 -13123-2 0  9999
2 25885  52.0122 218.1762 0005404 126.1300 246.7368 11.39205534 68042
GLOBALSTAR M053 [-]     
1 25886U 99043D   24086.90022395 -.00000025  00000+0  12642-2 0  9998
2 25886  51.9960 139.8005 0003186  49.1055 121.7830 11.27654281 68989
GLOBALSTAR M058 [-]     
1 25907U 99049A   24087.55686126 -.00000106  00000+0 -28932-3 0  9999
2 25907  51.9927 221.7704 0003036 133.2923 226.8165 11.93178815 99435
GLOBALSTAR M050 [-]     
1 25908U 99049B   24087.21832659 -.00000114  00000+0 -29477-3 0  9991
2 25908  51.9972 263.7440 0008632 216.0393 313.8018 12.07430219 98929
GLOBALSTAR M033 [-]     
1 25909U 99049C   24087.53075085 -.00000058  00000+0  32907-3 0  9997
2 25909  51.9899 165.5718 0011905  74.3297 285.8863 12.20269620113947
GLOBALSTAR M055 [-]     
1 25910U 99049D   24086.61111702 -.00000064  00000+0  25525-3 0  9999
2 25910  52.0008 200.6857 0006332 280.4274  79.5863 12.29397701113232
